0 COSMOS 2368
1 26042U 99073A   13280.45236044  .00000678  00000-0  00000+0 0  7149
2 26042 067.5349 252.1206 5521494 258.0845 238.1391 02.00610310100944
0 COSMOS 2368
1 26042U 99073A   13286.56681781  .00000644  00000-0  00000+0 0  7153
2 26042 067.5329 251.7799 5520417 257.9337 334.1290 02.00617386101061
0 COSMOS 2368
1 26042U 99073A   13293.30459340  .00000640  00000-0  00000+0 0  7164
2 26042 067.5307 251.4028 5519096 257.7714 160.4777 02.00624869101207
0 COSMOS 2368
1 26042U 99073A   13294.10450936  .00000645  00000-0  00000+0 0    17
2 26042 067.5305 251.3583 5519015 257.7517 018.2285 02.00625760101207
